{
  "type": "FeatureCollection",
  "features": [
    {
      "type": "Feature",
      "properties": {
        "norad_id": 39227,
        "name": "ARIRANG-5 (KOMPSAT-5)",
        "group": "resource",
        "lat": -82.24492830457233,
        "lon": -97.42298558840959,
        "alt_km": 561.5520347254396,
        "timestamp": "2025-12-25T03:55:55.963261+00:00",
        "meta_object_name": "ARIRANG-5 (KOMPSAT-5)",
        "meta_object_id": "2013-042A",
        "meta_epoch": "2025-12-24T20:20:39.194304",
        "meta_mean_motion": 15.04483683,
        "meta_eccentricity": 0.0003057,
        "meta_inclination": 97.6163,
        "meta_ra_of_asc_node": 182.9796,
        "meta_arg_of_pericenter": 33.8235,
        "meta_mean_anomaly": 326.3186,
        "meta_ephemeris_type": 0,
        "meta_classification_type": "U",
        "meta_norad_cat_id": 39227,
        "meta_element_set_no": 999,
        "meta_rev_at_epoch": 67764,
        "meta_bstar": 0.00019419,
        "meta_mean_motion_dot": 2.657e-05,
        "meta_mean_motion_ddot": 0,
        "tle_line1": "1 39227U 13042A   25358.84767586  .00002657  00000+0  19419-3 0  9993",
        "tle_line2": "2 39227  97.6163 182.9796 0003057  33.8235 326.3186 15.04483683677649"
      },
      "geometry": {
        "type": "Point",
        "coordinates": [
          -97.42298558840959,
          -82.24492830457233
        ]
      }
    },
    {
      "type": "Feature",
      "properties": {
        "norad_id": 39418,
        "name": "SKYSAT-A",
        "group": "resource",
        "lat": -62.021859391891425,
        "lon": -145.18444827888638,
        "alt_km": 528.8401640581196,
        "timestamp": "2025-12-25T03:55:55.963272+00:00",
        "meta_object_name": "SKYSAT-A",
        "meta_object_id": "2013-066C",
        "meta_epoch": "2025-12-24T15:44:27.880800",
        "meta_mean_motion": 15.11686962,
        "meta_eccentricity": 0.0021602,
        "meta_inclination": 97.4086,
        "meta_ra_of_asc_node": 48.5017,
        "meta_arg_of_pericenter": 193.6235,
        "meta_mean_anomaly": 166.4415,
        "meta_ephemeris_type": 0,
        "meta_classification_type": "U",
        "meta_norad_cat_id": 39418,
        "meta_element_set_no": 999,
        "meta_rev_at_epoch": 66210,
        "meta_bstar": 0.00019275,
        "meta_mean_motion_dot": 3.234e-05,
        "meta_mean_motion_ddot": 0,
        "tle_line1": "1 39418U 13066C   25358.65587825  .00003234  00000+0  19275-3 0  9998",
        "tle_line2": "2 39418  97.4086  48.5017 0021602 193.6235 166.4415 15.11686962662103"
      },
      "geometry": {
        "type": "Point",
        "coordinates": [
          -145.18444827888638,
          -62.021859391891425
        ]
      }
    },
    {
      "type": "Feature",
      "properties": {
        "norad_id": 39419,
        "name": "DUBAISAT-2",
        "group": "resource",
        "lat": -59.592212344492204,
        "lon": 156.31142112483016,
        "alt_km": 542.2669413652402,
        "timestamp": "2025-12-25T03:55:55.963283+00:00",
        "meta_object_name": "DUBAISAT-2",
        "meta_object_id": "2013-066D",
        "meta_epoch": "2025-12-24T20:30:03.326688",
        "meta_mean_motion": 15.08468654,
        "meta_eccentricity": 0.0009882,
        "meta_inclination": 97.4464,
        "meta_ra_of_asc_node": 348.8882,
        "meta_arg_of_pericenter": 273.9648,
        "meta_mean_anomaly": 86.0451,
        "meta_ephemeris_type": 0,
        "meta_classification_type": "U",
        "meta_norad_cat_id": 39419,
        "meta_element_set_no": 999,
        "meta_rev_at_epoch": 66009,
        "meta_bstar": 0.00030693,
        "meta_mean_motion_dot": 4.726e-05,
        "meta_mean_motion_ddot": 0,
        "tle_line1": "1 39419U 13066D   25358.85420517  .00004726  00000+0  30693-3 0  9999",
        "tle_line2": "2 39419  97.4464 348.8882 0009882 273.9648  86.0451 15.08468654660091"
      },
      "geometry": {
        "type": "Point",
        "coordinates": [
          156.31142112483016,
          -59.592212344492204
        ]
      }
    },
    {
      "type": "Feature",
      "properties": {
        "norad_id": 39574,
        "name": "GPM-CORE",
        "group": "resource",
        "lat": -44.08082556757197,
        "lon": 17.977503244706707,
        "alt_km": 432.2837746462192,
        "timestamp": "2025-12-25T03:55:55.963293+00:00",
        "meta_object_name": "GPM-CORE",
        "meta_object_id": "2014-009C",
        "meta_epoch": "2025-12-24T19:10:10.849152",
        "meta_mean_motion": 15.44648321,
        "meta_eccentricity": 0.0009118,
        "meta_inclination": 64.9726,
        "meta_ra_of_asc_node": 172.2977,
        "meta_arg_of_pericenter": 250.5764,
        "meta_mean_anomaly": 109.4391,
        "meta_ephemeris_type": 0,
        "meta_classification_type": "U",
        "meta_norad_cat_id": 39574,
        "meta_element_set_no": 999,
        "meta_rev_at_epoch": 67087,
        "meta_bstar": 0.00019069,
        "meta_mean_motion_dot": 8.7e-05,
        "meta_mean_motion_ddot": 0,
        "tle_line1": "1 39574U 14009C   25358.79873668  .00008700  00000+0  19069-3 0  9991",
        "tle_line2": "2 39574  64.9726 172.2977 0009118 250.5764 109.4391 15.44648321670870"
      },
      "geometry": {
        "type": "Point",
        "coordinates": [
          17.977503244706707,
          -44.08082556757197
        ]
      }
    },
    {
      "type": "Feature",
      "properties": {
        "norad_id": 39634,
        "name": "SENTINEL-1A",
        "group": "resource",
        "lat": -10.611312406204027,
        "lon": -177.32284107224342,
        "alt_km": 700.2223408693862,
        "timestamp": "2025-12-25T03:55:55.963303+00:00",
        "meta_object_name": "SENTINEL-1A",
        "meta_object_id": "2014-016A",
        "meta_epoch": "2025-12-24T20:28:43.348800",
        "meta_mean_motion": 14.59199256,
        "meta_eccentricity": 0.0001209,
        "meta_inclination": 98.1799,
        "meta_ra_of_asc_node": 3.9154,
        "meta_arg_of_pericenter": 87.754,
        "meta_mean_anomaly": 272.3798,
        "meta_ephemeris_type": 0,
        "meta_classification_type": "U",
        "meta_norad_cat_id": 39634,
        "meta_element_set_no": 999,
        "meta_rev_at_epoch": 62459,
        "meta_bstar": -4.2351e-05,
        "meta_mean_motion_dot": -2.45e-06,
        "meta_mean_motion_ddot": 0,
        "tle_line1": "1 39634U 14016A   25358.85327950 -.00000245  00000+0 -42351-4 0  9990",
        "tle_line2": "2 39634  98.1799   3.9154 0001209  87.7540 272.3798 14.59199256624590"
      },
      "geometry": {
        "type": "Point",
        "coordinates": [
          -177.32284107224342,
          -10.611312406204027
        ]
      }
    },
    {
      "type": "Feature",
      "properties": {
        "norad_id": 39731,
        "name": "KAZEOSAT 1",
        "group": "resource",
        "lat": 58.95749636467785,
        "lon": -95.0983863462241,
        "alt_km": 745.1707012028783,
        "timestamp": "2025-12-25T03:55:55.963314+00:00",
        "meta_object_name": "KAZEOSAT 1",
        "meta_object_id": "2014-024A",
        "meta_epoch": "2025-12-24T20:43:01.252416",
        "meta_mean_motion": 14.42069022,
        "meta_eccentricity": 0.0001211,
        "meta_inclination": 98.3418,
        "meta_ra_of_asc_node": 70.498,
        "meta_arg_of_pericenter": 95.7904,
        "meta_mean_anomaly": 264.3424,
        "meta_ephemeris_type": 0,
        "meta_classification_type": "U",
        "meta_norad_cat_id": 39731,
        "meta_element_set_no": 999,
        "meta_rev_at_epoch": 61343,
        "meta_bstar": 7.1837e-05,
        "meta_mean_motion_dot": 1.93e-06,
        "meta_mean_motion_ddot": 0,
        "tle_line1": "1 39731U 14024A   25358.86320894  .00000193  00000+0  71837-4 0  9999",
        "tle_line2": "2 39731  98.3418  70.4980 0001211  95.7904 264.3424 14.42069022613437"
      },
      "geometry": {
        "type": "Point",
        "coordinates": [
          -95.0983863462241,
          58.95749636467785
        ]
      }
    },
    {
      "type": "Feature",
      "properties": {
        "norad_id": 39766,
        "name": "ALOS-2",
        "group": "resource",
        "lat": -53.56989328891777,
        "lon": -97.0424758816761,
        "alt_km": 638.6770206518422,
        "timestamp": "2025-12-25T03:55:55.963324+00:00",
        "meta_object_name": "ALOS-2",
        "meta_object_id": "2014-029A",
        "meta_epoch": "2025-12-24T23:37:49.057248",
        "meta_mean_motion": 14.79466578,
        "meta_eccentricity": 0.0001364,
        "meta_inclination": 97.9226,
        "meta_ra_of_asc_node": 93.6564,
        "meta_arg_of_pericenter": 101.0923,
        "meta_mean_anomaly": 259.0442,
        "meta_ephemeris_type": 0,
        "meta_classification_type": "U",
        "meta_norad_cat_id": 39766,
        "meta_element_set_no": 999,
        "meta_rev_at_epoch": 62582,
        "meta_bstar": 0.00043861,
        "meta_mean_motion_dot": 3.225e-05,
        "meta_mean_motion_ddot": 0,
        "tle_line1": "1 39766U 14029A   25358.98459557  .00003225  00000+0  43861-3 0  9998",
        "tle_line2": "2 39766  97.9226  93.6564 0001364 101.0923 259.0442 14.79466578625827"
      },
      "geometry": {
        "type": "Point",
        "coordinates": [
          -97.0424758816761,
          -53.56989328891777
        ]
      }
    }
  ]
}